[{"OBJECT_NAME":"COSMOS 2251 DEB","OBJECT_ID":"1993-036VJ","EPOCH":"2026-03-27T23:14:10.351104","MEAN_MOTION":14.5204997,"ECCENTRICITY":0.00604,"INCLINATION":74.0084,"RA_OF_ASC_NODE":277.2147,"ARG_OF_PERICENTER":326.3,"MEAN_ANOMALY":184.6014,"EPHEMERIS_TYPE":0,"CLASSIFICATION_TYPE":"U","NORAD_CAT_ID":34572,"ELEMENT_SET_NO":999,"REV_AT_EPOCH":88904,"BSTAR":0.0013266,"MEAN_MOTION_DOT":5.469e-5,"MEAN_MOTION_DDOT":0},{"OBJECT_NAME":"COSMOS 2251 DEB","OBJECT_ID":"1993-036VL","EPOCH":"2026-03-28T18:28:35.675040","MEAN_MOTION":14.72415709,"ECCENTRICITY":0.0065435,"INCLINATION":74.0683,"RA_OF_ASC_NODE":197.443,"ARG_OF_PERICENTER":193.2928,"MEAN_ANOMALY":293.5805,"EPHEMERIS_TYPE":0,"CLASSIFICATION_TYPE":"U","NORAD_CAT_ID":34574,"ELEMENT_SET_NO":999,"REV_AT_EPOCH":90338,"BSTAR":0.0013577,"MEAN_MOTION_DOT":8.878e-5,"MEAN_MOTION_DDOT":0},{"OBJECT_NAME":"COSMOS 2251 DEB","OBJECT_ID":"1993-036VN","EPOCH":"2026-03-28T16:01:11.667360","MEAN_MOTION":14.56230527,"ECCENTRICITY":0.000693,"INCLINATION":74.0336,"RA_OF_ASC_NODE":297.3806,"ARG_OF_PERICENTER":49.2544,"MEAN_ANOMALY":16.2889,"EPHEMERIS_TYPE":0,"CLASSIFICATION_TYPE":"U","NORAD_CAT_ID":34576,"ELEMENT_SET_NO":999,"REV_AT_EPOCH":90008,"BSTAR":0.00061286,"MEAN_MOTION_DOT":2.683e-5,"MEAN_MOTION_DDOT":0},{"OBJECT_NAME":"COSMOS 2251 DEB","OBJECT_ID":"1993-036VR","EPOCH":"2026-03-28T07:01:59.474208","MEAN_MOTION":14.45686789,"ECCENTRICITY":0.0024908,"INCLINATION":74.0545,"RA_OF_ASC_NODE":27.3171,"ARG_OF_PERICENTER":71.6173,"MEAN_ANOMALY":81.7873,"EPHEMERIS_TYPE":0,"CLASSIFICATION_TYPE":"U","NORAD_CAT_ID":34579,"ELEMENT_SET_NO":999,"REV_AT_EPOCH":89699,"BSTAR":0.00047051,"MEAN_MOTION_DOT":1.645e-5,"MEAN_MOTION_DDOT":0},{"OBJECT_NAME":"COSMOS 2251 DEB","OBJECT_ID":"1993-036VU","EPOCH":"2026-03-28T09:57:44.144064","MEAN_MOTION":14.43823533,"ECCENTRICITY":0.00486162,"INCLINATION":74.0173,"RA_OF_ASC_NODE":75.7667,"ARG_OF_PERICENTER":165.1535,"MEAN_ANOMALY":195.1063,"EPHEMERIS_TYPE":0,"CLASSIFICATION_TYPE":"U","NORAD_CAT_ID":34582,"ELEMENT_SET_NO":999,"REV_AT_EPOCH":89472,"BSTAR":0.00048282043,"MEAN_MOTION_DOT":1.641e-5,"MEAN_MOTION_DDOT":0},{"OBJECT_NAME":"COSMOS 2251 DEB","OBJECT_ID":"1993-036WA","EPOCH":"2026-03-28T16:18:28.836288","MEAN_MOTION":14.42364452,"ECCENTRICITY":0.0016539,"INCLINATION":74.0414,"RA_OF_ASC_NODE":71.893,"ARG_OF_PERICENTER":106.3089,"MEAN_ANOMALY":71.6059,"EPHEMERIS_TYPE":0,"CLASSIFICATION_TYPE":"U","NORAD_CAT_ID":34588,"ELEMENT_SET_NO":999,"REV_AT_EPOCH":89477,"BSTAR":0.00041722,"MEAN_MOTION_DOT":1.355e-5,"MEAN_MOTION_DDOT":0},{"OBJECT_NAME":"COSMOS 2251 DEB","OBJECT_ID":"1993-036WB","EPOCH":"2026-03-28T16:45:34.024608","MEAN_MOTION":13.86303193,"ECCENTRICITY":0.0250309,"INCLINATION":73.9238,"RA_OF_ASC_NODE":235.4317,"ARG_OF_PERICENTER":158.3911,"MEAN_ANOMALY":215.8195,"EPHEMERIS_TYPE":0,"CLASSIFICATION_TYPE":"U","NORAD_CAT_ID":34589,"ELEMENT_SET_NO":999,"REV_AT_EPOCH":86180,"BSTAR":0.00079084,"MEAN_MOTION_DOT":1.147e-5,"MEAN_MOTION_DDOT":0},{"OBJECT_NAME":"COSMOS 2251 DEB","OBJECT_ID":"1993-036WC","EPOCH":"2026-03-28T12:57:02.530368","MEAN_MOTION":14.54973339,"ECCENTRICITY":0.0070312,"INCLINATION":74.0418,"RA_OF_ASC_NODE":122.391,"ARG_OF_PERICENTER":225.9443,"MEAN_ANOMALY":286.9522,"EPHEMERIS_TYPE":0,"CLASSIFICATION_TYPE":"U","NORAD_CAT_ID":34590,"ELEMENT_SET_NO":999,"REV_AT_EPOCH":90659,"BSTAR":0.00011216,"MEAN_MOTION_DOT":4.68e-6,"MEAN_MOTION_DDOT":0},{"OBJECT_NAME":"COSMOS 2251 DEB","OBJECT_ID":"1993-036WE","EPOCH":"2026-03-27T18:22:48.079200","MEAN_MOTION":14.22238212,"ECCENTRICITY":0.01432538,"INCLINATION":73.7299,"RA_OF_ASC_NODE":274.6888,"ARG_OF_PERICENTER":117.9018,"MEAN_ANOMALY":260.8917,"EPHEMERIS_TYPE":0,"CLASSIFICATION_TYPE":"U","NORAD_CAT_ID":34609,"ELEMENT_SET_NO":999,"REV_AT_EPOCH":88125,"BSTAR":0.00082118706,"MEAN_MOTION_DOT":1.998e-5,"MEAN_MOTION_DDOT":0},{"OBJECT_NAME":"COSMOS 2251 DEB","OBJECT_ID":"1993-036WF","EPOCH":"2026-03-28T16:17:12.329952","MEAN_MOTION":14.0771994,"ECCENTRICITY":0.0181048,"INCLINATION":74.0167,"RA_OF_ASC_NODE":76.4164,"ARG_OF_PERICENTER":183.9154,"MEAN_ANOMALY":176.0581,"EPHEMERIS_TYPE":0,"CLASSIFICATION_TYPE":"U","NORAD_CAT_ID":34610,"ELEMENT_SET_NO":999,"REV_AT_EPOCH":87050,"BSTAR":0.0010162,"MEAN_MOTION_DOT":1.973e-5,"MEAN_MOTION_DDOT":0},{"OBJECT_NAME":"COSMOS 2251 DEB","OBJECT_ID":"1993-036WG","EPOCH":"2026-03-28T15:09:13.957920","MEAN_MOTION":14.71594053,"ECCENTRICITY":0.0022517,"INCLINATION":74.051,"RA_OF_ASC_NODE":255.6722,"ARG_OF_PERICENTER":269.8061,"MEAN_ANOMALY":209.7236,"EPHEMERIS_TYPE":0,"CLASSIFICATION_TYPE":"U","NORAD_CAT_ID":34611,"ELEMENT_SET_NO":999,"REV_AT_EPOCH":89947,"BSTAR":0.0019941,"MEAN_MOTION_DOT":0.00012442,"MEAN_MOTION_DDOT":0},{"OBJECT_NAME":"COSMOS 2251 DEB","OBJECT_ID":"1993-036WJ","EPOCH":"2026-03-27T23:46:02.335584","MEAN_MOTION":14.27133258,"ECCENTRICITY":0.0115428,"INCLINATION":73.9615,"RA_OF_ASC_NODE":87.3171,"ARG_OF_PERICENTER":254.8196,"MEAN_ANOMALY":136.4292,"EPHEMERIS_TYPE":0,"CLASSIFICATION_TYPE":"U","NORAD_CAT_ID":34613,"ELEMENT_SET_NO":999,"REV_AT_EPOCH":87964,"BSTAR":0.0012343,"MEAN_MOTION_DOT":3.206e-5,"MEAN_MOTION_DDOT":0},{"OBJECT_NAME":"COSMOS 2251 DEB","OBJECT_ID":"1993-036WK","EPOCH":"2026-03-28T07:42:16.135776","MEAN_MOTION":14.20314937,"ECCENTRICITY":0.01824464,"INCLINATION":73.8772,"RA_OF_ASC_NODE":153.4129,"ARG_OF_PERICENTER":129.9448,"MEAN_ANOMALY":350.7,"EPHEMERIS_TYPE":0,"CLASSIFICATION_TYPE":"U","NORAD_CAT_ID":34614,"ELEMENT_SET_NO":999,"REV_AT_EPOCH":86264,"BSTAR":0.0025344387,"MEAN_MOTION_DOT":6.391e-5,"MEAN_MOTION_DDOT":0},{"OBJECT_NAME":"COSMOS 2251 DEB","OBJECT_ID":"1993-036WL","EPOCH":"2026-03-28T12:34:22.772352","MEAN_MOTION":13.52338513,"ECCENTRICITY":0.0399412,"INCLINATION":74.003,"RA_OF_ASC_NODE":124.482,"ARG_OF_PERICENTER":9.3265,"MEAN_ANOMALY":138.8467,"EPHEMERIS_TYPE":0,"CLASSIFICATION_TYPE":"U","NORAD_CAT_ID":34615,"ELEMENT_SET_NO":999,"REV_AT_EPOCH":84245,"BSTAR":0.00024012,"MEAN_MOTION_DOT":2.41e-6,"MEAN_MOTION_DDOT":0},{"OBJECT_NAME":"COSMOS 2251 DEB","OBJECT_ID":"1993-036WQ","EPOCH":"2026-03-28T18:56:49.385472","MEAN_MOTION":14.64998541,"ECCENTRICITY":0.0091875,"INCLINATION":74.0469,"RA_OF_ASC_NODE":356.0906,"ARG_OF_PERICENTER":63.8695,"MEAN_ANOMALY":297.1889,"EPHEMERIS_TYPE":0,"CLASSIFICATION_TYPE":"U","NORAD_CAT_ID":34619,"ELEMENT_SET_NO":999,"REV_AT_EPOCH":90851,"BSTAR":0.00025506,"MEAN_MOTION_DOT":1.421e-5,"MEAN_MOTION_DDOT":0},{"OBJECT_NAME":"COSMOS 2251 DEB","OBJECT_ID":"1993-036WR","EPOCH":"2026-03-27T20:41:14.841312","MEAN_MOTION":14.51750258,"ECCENTRICITY":0.00714822,"INCLINATION":74.0519,"RA_OF_ASC_NODE":22.1404,"ARG_OF_PERICENTER":33.2412,"MEAN_ANOMALY":327.3208,"EPHEMERIS_TYPE":0,"CLASSIFICATION_TYPE":"U","NORAD_CAT_ID":34620,"ELEMENT_SET_NO":999,"REV_AT_EPOCH":88351,"BSTAR":0.0029128445,"MEAN_MOTION_DOT":0.00012094,"MEAN_MOTION_DDOT":0},{"OBJECT_NAME":"COSMOS 2251 DEB","OBJECT_ID":"1993-036WT","EPOCH":"2026-03-28T20:31:17.253120","MEAN_MOTION":14.22476456,"ECCENTRICITY":0.0106197,"INCLINATION":74.039,"RA_OF_ASC_NODE":116.5449,"ARG_OF_PERICENTER":176.6063,"MEAN_ANOMALY":0.6852,"EPHEMERIS_TYPE":0,"CLASSIFICATION_TYPE":"U","NORAD_CAT_ID":34622,"ELEMENT_SET_NO":999,"REV_AT_EPOCH":87968,"BSTAR":0.00047787,"MEAN_MOTION_DOT":1.104e-5,"MEAN_MOTION_DDOT":0},{"OBJECT_NAME":"COSMOS 2251 DEB","OBJECT_ID":"1993-036WX","EPOCH":"2026-03-28T20:09:28.070208","MEAN_MOTION":14.7358983,"ECCENTRICITY":0.0027833,"INCLINATION":74.0458,"RA_OF_ASC_NODE":117.367,"ARG_OF_PERICENTER":188.3973,"MEAN_ANOMALY":351.3949,"EPHEMERIS_TYPE":0,"CLASSIFICATION_TYPE":"U","NORAD_CAT_ID":34626,"ELEMENT_SET_NO":999,"REV_AT_EPOCH":90706,"BSTAR":0.00067164,"MEAN_MOTION_DOT":4.37e-5,"MEAN_MOTION_DDOT":0},{"OBJECT_NAME":"COSMOS 2251 DEB","OBJECT_ID":"1993-036XF","EPOCH":"2026-03-28T13:51:09.908928","MEAN_MOTION":14.56043094,"ECCENTRICITY":0.0046504,"INCLINATION":74.052,"RA_OF_ASC_NODE":194.5314,"ARG_OF_PERICENTER":273.7581,"MEAN_ANOMALY":97.8908,"EPHEMERIS_TYPE":0,"CLASSIFICATION_TYPE":"U","NORAD_CAT_ID":34634,"ELEMENT_SET_NO":999,"REV_AT_EPOCH":90322,"BSTAR":0.00034849,"MEAN_MOTION_DOT":1.527e-5,"MEAN_MOTION_DDOT":0},{"OBJECT_NAME":"COSMOS 2251 DEB","OBJECT_ID":"1993-036XG","EPOCH":"2026-03-28T20:02:28.217184","MEAN_MOTION":14.69888853,"ECCENTRICITY":0.0030174,"INCLINATION":74.0431,"RA_OF_ASC_NODE":225.4057,"ARG_OF_PERICENTER":267.2422,"MEAN_ANOMALY":252.9568,"EPHEMERIS_TYPE":0,"CLASSIFICATION_TYPE":"U","NORAD_CAT_ID":34635,"ELEMENT_SET_NO":999,"REV_AT_EPOCH":74777,"BSTAR":0.0012072,"MEAN_MOTION_DOT":7.247e-5,"MEAN_MOTION_DDOT":0},{"OBJECT_NAME":"COSMOS 2251 DEB","OBJECT_ID":"1993-036XJ","EPOCH":"2026-03-28T20:40:07.335264","MEAN_MOTION":14.61060568,"ECCENTRICITY":0.0050068,"INCLINATION":74.0474,"RA_OF_ASC_NODE":258.6062,"ARG_OF_PERICENTER":300.5484,"MEAN_ANOMALY":185.6718,"EPHEMERIS_TYPE":0,"CLASSIFICATION_TYPE":"U","NORAD_CAT_ID":34637,"ELEMENT_SET_NO":999,"REV_AT_EPOCH":90076,"BSTAR":0.00068867,"MEAN_MOTION_DOT":3.413e-5,"MEAN_MOTION_DDOT":0},{"OBJECT_NAME":"COSMOS 2251 DEB","OBJECT_ID":"1993-036XN","EPOCH":"2026-03-28T09:49:08.781024","MEAN_MOTION":14.52808119,"ECCENTRICITY":0.00166677,"INCLINATION":73.8371,"RA_OF_ASC_NODE":240.0312,"ARG_OF_PERICENTER":139.1803,"MEAN_ANOMALY":251.6482,"EPHEMERIS_TYPE":0,"CLASSIFICATION_TYPE":"U","NORAD_CAT_ID":34641,"ELEMENT_SET_NO":999,"REV_AT_EPOCH":89790,"BSTAR":0.0010965105,"MEAN_MOTION_DOT":4.488e-5,"MEAN_MOTION_DDOT":0},{"OBJECT_NAME":"COSMOS 2251 DEB","OBJECT_ID":"1993-036XP","EPOCH":"2026-03-28T11:26:03.849216","MEAN_MOTION":13.99373739,"ECCENTRICITY":0.02099412,"INCLINATION":74.0033,"RA_OF_ASC_NODE":156.5876,"ARG_OF_PERICENTER":311.4486,"MEAN_ANOMALY":65.7989,"EPHEMERIS_TYPE":0,"CLASSIFICATION_TYPE":"U","NORAD_CAT_ID":34642,"ELEMENT_SET_NO":999,"REV_AT_EPOCH":86772,"BSTAR":0.00095202535,"MEAN_MOTION_DOT":1.648e-5,"MEAN_MOTION_DDOT":0}]
